{"type": "FeatureCollection", "features": [ {"type": "Feature", "properties": {"norad_id": 38779, "name": "GSAT-10 (GAGAN/PRN 128)", "group": "gnss", "lat": 0.02455021050244374, "lon": -40.5788610812061, "alt_km": 35797.10872024111, "timestamp": "2025-12-04T10:51:50.348225+00:00", "meta": {"OBJECT_NAME": "GSAT-10 (GAGAN/PRN 128)", "OBJECT_ID": "2012-051B", "EPOCH": "2025-12-03T18:58:13.469952", "MEAN_MOTION": 1.00269045, "ECCENTRICITY": 0.00024376, "INCLINATION": 0.0313, "RA_OF_ASC_NODE": 262.6926, "ARG_OF_PERICENTER": 235.2826, "MEAN_ANOMALY": 302.4185, "EPHEMERIS_TYPE": 0, "CLASSIFICATION_TYPE": "U", "NORAD_CAT_ID": 38779, "ELEMENT_SET_NO": 999, "REV_AT_EPOCH": 4813, "BSTAR": 0, "MEAN_MOTION_DOT": -1.47e-06, "MEAN_MOTION_DDOT": 0}, "tle": {"line1": "1 38779U 12051B   25337.79043368 -.00000147  00000+0  00000+0 0  9994", "line2": "2 38779   0.0313 262.6926 0002437 235.2826 302.4185  1.00269045 48136"}}, "geometry": {"type": "Point", "coordinates": [-40.5788610812061, 0.02455021050244374]}}, {"type": "Feature", "properties": {"norad_id": 38833, "name": "GPS BIIF-3  (PRN 24)", "group": "gnss", "lat": 42.60031691064188, "lon": -165.59802832911333, "alt_km": 19713.64794982302, "timestamp": "2025-12-04T10:51:50.348238+00:00", "meta": {"OBJECT_NAME": "GPS BIIF-3  (PRN 24)", "OBJECT_ID": "2012-053A", "EPOCH": "2025-12-01T21:10:58.228896", "MEAN_MOTION": 2.00564835, "ECCENTRICITY": 0.01754817, "INCLINATION": 53.5559, "RA_OF_ASC_NODE": 151.6834, "ARG_OF_PERICENTER": 63.8436, "MEAN_ANOMALY": 297.9871, "EPHEMERIS_TYPE": 0, "CLASSIFICATION_TYPE": "U", "NORAD_CAT_ID": 38833, "ELEMENT_SET_NO": 999, "REV_AT_EPOCH": 9548, "BSTAR": 0, "MEAN_MOTION_DOT": 1.16e-06, "MEAN_MOTION_DDOT": 0}, "tle": {"line1": "1 38833U 12053A   25335.88261839  .00000116  00000+0  00000+0 0  9995", "line2": "2 38833  53.5559 151.6834 0175481  63.8436 297.9871  2.00564835 95485"}}, "geometry": {"type": "Point", "coordinates": [-165.59802832911333, 42.60031691064188]}}, {"type": "Feature", "properties": {"norad_id": 38857, "name": "GSAT0103 (GALILEO-FM3)", "group": "gnss", "lat": -8.69339524389507, "lon": -67.13479368824498, "alt_km": 23222.095459457887, "timestamp": "2025-12-04T10:51:50.348249+00:00", "meta": {"OBJECT_NAME": "GSAT0103 (GALILEO-FM3)", "OBJECT_ID": "2012-055A", "EPOCH": "2025-12-01T05:01:21.613152", "MEAN_MOTION": 1.70473256, "ECCENTRICITY": 0.00023005, "INCLINATION": 55.6823, "RA_OF_ASC_NODE": 106.9832, "ARG_OF_PERICENTER": 267.1494, "MEAN_ANOMALY": 92.7944, "EPHEMERIS_TYPE": 0, "CLASSIFICATION_TYPE": "U", "NORAD_CAT_ID": 38857, "ELEMENT_SET_NO": 999, "REV_AT_EPOCH": 8163, "BSTAR": 0, "MEAN_MOTION_DOT": 4.2e-07, "MEAN_MOTION_DDOT": 0}, "tle": {"line1": "1 38857U 12055A   25335.20927793  .00000042  00000+0  00000+0 0  9995", "line2": "2 38857  55.6823 106.9832 0002300 267.1494  92.7944  1.70473256 81637"}}, "geometry": {"type": "Point", "coordinates": [-67.13479368824498, -8.69339524389507]}}, {"type": "Feature", "properties": {"norad_id": 38953, "name": "BEIDOU-2 G6 (C02)", "group": "gnss", "lat": -3.5595693377765167, "lon": -39.59223567396601, "alt_km": 35765.14940061438, "timestamp": "2025-12-04T10:51:50.348277+00:00", "meta": {"OBJECT_NAME": "BEIDOU-2 G6 (C02)", "OBJECT_ID": "2012-059A", "EPOCH": "2025-12-03T20:01:38.715168", "MEAN_MOTION": 1.00270617, "ECCENTRICITY": 0.00073543, "INCLINATION": 3.9249, "RA_OF_ASC_NODE": 75.5902, "ARG_OF_PERICENTER": 289.87, "MEAN_ANOMALY": 91.9175, "EPHEMERIS_TYPE": 0, "CLASSIFICATION_TYPE": "U", "NORAD_CAT_ID": 38953, "ELEMENT_SET_NO": 999, "REV_AT_EPOCH": 4795, "BSTAR": 0, "MEAN_MOTION_DOT": -1.6e-06, "MEAN_MOTION_DDOT": 0}, "tle": {"line1": "1 38953U 12059A   25337.83447587 -.00000160  00000+0  00000+0 0  9997", "line2": "2 38953   3.9249  75.5902 0007354 289.8700  91.9175  1.00270617 47959"}}, "geometry": {"type": "Point", "coordinates": [-39.59223567396601, -3.5595693377765167]}}, {"type": "Feature", "properties": {"norad_id": 38977, "name": "LUCH 5B (SDCM/PRN 125)", "group": "gnss", "lat": 2.016064870864268, "lon": -139.76997116775075, "alt_km": 35756.72729641279, "timestamp": "2025-12-04T10:51:50.348293+00:00", "meta": {"OBJECT_NAME": "LUCH 5B (SDCM/PRN 125)", "OBJECT_ID": "2012-061A", "EPOCH": "2025-12-04T01:12:49.528800", "MEAN_MOTION": 1.00268796, "ECCENTRICITY": 0.0007625, "INCLINATION": 10.0615, "RA_OF_ASC_NODE": 51.7844, "ARG_OF_PERICENTER": 190.1475, "MEAN_ANOMALY": 193.0165, "EPHEMERIS_TYPE": 0, "CLASSIFICATION_TYPE": "U", "NORAD_CAT_ID": 38977, "ELEMENT_SET_NO": 999, "REV_AT_EPOCH": 4765, "BSTAR": 0, "MEAN_MOTION_DOT": -1.29e-06, "MEAN_MOTION_DDOT": 0}, "tle": {"line1": "1 38977U 12061A   25338.05057325 -.00000129  00000+0  00000+0 0  9993", "line2": "2 38977  10.0615  51.7844 0007625 190.1475 193.0165  1.00268796 47651"}}, "geometry": {"type": "Point", "coordinates": [-139.76997116775075, 2.016064870864268]}}, {"type": "Feature", "properties": {"norad_id": 39155, "name": "COSMOS 2485 (747)", "group": "gnss", "lat": -34.459969545933426, "lon": -81.47963678786114, "alt_km": 19072.720518593946, "timestamp": "2025-12-04T10:51:50.348306+00:00", "meta": {"OBJECT_NAME": "COSMOS 2485 (747)", "OBJECT_ID": "2013-019A", "EPOCH": "2025-12-02T06:58:21.505152", "MEAN_MOTION": 2.13102877, "ECCENTRICITY": 0.00245683, "INCLINATION": 65.3079, "RA_OF_ASC_NODE": 80.2187, "ARG_OF_PERICENTER": 229.0905, "MEAN_ANOMALY": 130.6936, "EPHEMERIS_TYPE": 0, "CLASSIFICATION_TYPE": "U", "NORAD_CAT_ID": 39155, "ELEMENT_SET_NO": 999, "REV_AT_EPOCH": 9808, "BSTAR": 0, "MEAN_MOTION_DOT": -1.8e-07, "MEAN_MOTION_DDOT": 0}, "tle": {"line1": "1 39155U 13019A   25336.29052668 -.00000018  00000+0  00000+0 0  9992", "line2": "2 39155  65.3079  80.2187 0024568 229.0905 130.6936  2.13102877 98087"}}, "geometry": {"type": "Point", "coordinates": [-81.47963678786114, -34.459969545933426]}}, {"type": "Feature", "properties": {"norad_id": 39166, "name": "GPS BIIF-4  (PRN 27)", "group": "gnss", "lat": 18.801611339261616, "lon": 82.92297465959824, "alt_km": 20288.88805186386, "timestamp": "2025-12-04T10:51:50.348318+00:00", "meta": {"OBJECT_NAME": "GPS BIIF-4  (PRN 27)", "OBJECT_ID": "2013-023A", "EPOCH": "2025-12-02T17:50:49.750368", "MEAN_MOTION": 2.00565046, "ECCENTRICITY": 0.0137297, "INCLINATION": 54.6608, "RA_OF_ASC_NODE": 276.9746, "ARG_OF_PERICENTER": 48.5033, "MEAN_ANOMALY": 312.6627, "EPHEMERIS_TYPE": 0, "CLASSIFICATION_TYPE": "U", "NORAD_CAT_ID": 39166, "ELEMENT_SET_NO": 999, "REV_AT_EPOCH": 9194, "BSTAR": 0, "MEAN_MOTION_DOT": -3.8e-07, "MEAN_MOTION_DDOT": 0}, "tle": {"line1": "1 39166U 13023A   25336.74363137 -.00000038  00000+0  00000+0 0  9997", "line2": "2 39166  54.6608 276.9746 0137297  48.5033 312.6627  2.00565046 91947"}}, "geometry": {"type": "Point", "coordinates": [82.92297465959824, 18.801611339261616]}}, {"type": "Feature", "properties": {"norad_id": 39199, "name": "IRNSS-1A", "group": "gnss", "lat": -24.226103826256953, "lon": -73.92013266684432, "alt_km": 35716.590741461005, "timestamp": "2025-12-04T10:51:50.348336+00:00", "meta": {"OBJECT_NAME": "IRNSS-1A", "OBJECT_ID": "2013-034A", "EPOCH": "2025-12-02T19:49:26.431104", "MEAN_MOTION": 1.00279053, "ECCENTRICITY": 0.00216608, "INCLINATION": 35.2852, "RA_OF_ASC_NODE": 66.6964, "ARG_OF_PERICENTER": 185.4059, "MEAN_ANOMALY": 172.3398, "EPHEMERIS_TYPE": 0, "CLASSIFICATION_TYPE": "U", "NORAD_CAT_ID": 39199, "ELEMENT_SET_NO": 999, "REV_AT_EPOCH": 4539, "BSTAR": 0, "MEAN_MOTION_DOT": 6.5e-07, "MEAN_MOTION_DDOT": 0}, "tle": {"line1": "1 39199U 13034A   25336.82600036  .00000065  00000+0  00000+0 0  9995", "line2": "2 39199  35.2852  66.6964 0021660 185.4059 172.3398  1.00279053 45393"}}, "geometry": {"type": "Point", "coordinates": [-73.92013266684432, -24.226103826256953]}}, {"type": "Feature", "properties": {"norad_id": 39533, "name": "GPS BIIF-5  (PRN 30)", "group": "gnss", "lat": 18.679848118808245, "lon": -37.17928381663523, "alt_km": 20105.674726327088, "timestamp": "2025-12-04T10:51:50.348348+00:00", "meta": {"OBJECT_NAME": "GPS BIIF-5  (PRN 30)", "OBJECT_ID": "2014-008A", "EPOCH": "2025-12-02T17:43:01.654176", "MEAN_MOTION": 2.00573776, "ECCENTRICITY": 0.00789617, "INCLINATION": 53.6297, "RA_OF_ASC_NODE": 157.3327, "ARG_OF_PERICENTER": 226.3697, "MEAN_ANOMALY": 133.0142, "EPHEMERIS_TYPE": 0, "CLASSIFICATION_TYPE": "U", "NORAD_CAT_ID": 39533, "ELEMENT_SET_NO": 999, "REV_AT_EPOCH": 8574, "BSTAR": 0, "MEAN_MOTION_DOT": 1.12e-06, "MEAN_MOTION_DDOT": 0}, "tle": {"line1": "1 39533U 14008A   25336.73821359  .00000112  00000+0  00000+0 0  9995", "line2": "2 39533  53.6297 157.3327 0078961 226.3697 133.0142  2.00573776 85746"}}, "geometry": {"type": "Point", "coordinates": [-37.17928381663523, 18.679848118808245]}}, {"type": "Feature", "properties": {"norad_id": 39617, "name": "ASTRA 5B (EGNOS/PRN 123)", "group": "gnss", "lat": -0.06508961404474159, "lon": -100.01090897150237, "alt_km": 35768.10792608733, "timestamp": "2025-12-04T10:51:50.348361+00:00", "meta": {"OBJECT_NAME": "ASTRA 5B (EGNOS/PRN 123)", "OBJECT_ID": "2014-011B", "EPOCH": "2025-12-03T17:17:33.417888", "MEAN_MOTION": 1.00267413, "ECCENTRICITY": 0.00045192, "INCLINATION": 0.0482, "RA_OF_ASC_NODE": 12.4606, "ARG_OF_PERICENTER": 244.0222, "MEAN_ANOMALY": 99.2433, "EPHEMERIS_TYPE": 0, "CLASSIFICATION_TYPE": "U", "NORAD_CAT_ID": 39617, "ELEMENT_SET_NO": 999, "REV_AT_EPOCH": 4270, "BSTAR": 0, "MEAN_MOTION_DOT": 1.54e-06, "MEAN_MOTION_DDOT": 0}, "tle": {"line1": "1 39617U 14011B   25337.72052567  .00000154  00000+0  00000+0 0  9995", "line2": "2 39617   0.0482  12.4606 0004519 244.0222  99.2433  1.00267413 42703"}}, "geometry": {"type": "Point", "coordinates": [-100.01090897150237, -0.06508961404474159]}}]}